NORAD_CAT_ID,OBJECT_NAME,OBJECT_TYPE,EPOCH,MEAN_MOTION,ECCENTRICITY,INCLINATION,RA_OF_ASC_NODE,ARG_OF_PERICENTER,MEAN_ANOMALY,BSTAR,MEAN_MOTION_DOT,MEAN_MOTION_DDOT,TLE_LINE0,TLE_LINE1,TLE_LINE2,SEMIMAJOR_AXIS,PERIOD,APOGEE,PERIGEE,DECAYED
52671.0,STARLINK-4071,PAYLOAD,2022-10-27 05:27:49,15.0886024,0.0002288,53.2164,273.3976,45.2728,314.845,0.0003338,5.031e-05,0.0,0 STARLINK-4071,1 52671U 22053R   22300.22765208  .00005031  00000-0  33380-3 0  9991,2 52671  53.2164 273.3976 0002288  45.2728 314.8450 15.08860240 25005,6917.819,95.436,541.266,538.101,0.0
52671.0,STARLINK-4071,PAYLOAD,2022-10-27 10:13:58,15.08850754,0.0002452,53.2166,272.5058,42.3423,317.7758,0.00014665,2.047e-05,0.0,0 STARLINK-4071,1 52671U 22053R   22300.42637525  .00002047  00000-0  14665-3 0  9992,2 52671  53.2166 272.5058 0002452  42.3423 317.7758 15.08850754 25464,6917.848000000001,95.437,541.409,538.016,0.0
52671.0,STARLINK-4071,PAYLOAD,2022-10-28 10:04:44,15.0885918,0.0002117,53.2161,268.045,43.5571,316.5588,0.00023296,3.423e-05,0.0,0 STARLINK-4071,1 52671U 22053R   22301.41996381  .00003423  00000-0  23296-3 0  9999,2 52671  53.2161 268.0450 0002117  43.5571 316.5588 15.08859180 25617,6917.821999999999,95.436,541.151,538.222,0.0
52671.0,STARLINK-4071,PAYLOAD,2022-10-28 14:50:54,15.08860605,0.0002221,53.2162,267.153,43.59,316.5267,0.00027131,4.035e-05,0.0,0 STARLINK-4071,1 52671U 22053R   22301.61868201  .00004035  00000-0  27131-3 0  9992,2 52671  53.2162 267.1530 0002221  43.5900 316.5267 15.08860605 25640,6917.816999999999,95.436,541.219,538.146,0.0
52671.0,STARLINK-4071,PAYLOAD,2022-10-29 06:44:45,15.08848485,0.0002189,53.2162,264.1797,43.51,316.6065,-6.4866e-05,-1.321e-05,0.0,0 STARLINK-4071,1 52671U 22053R   22302.28108131 -.00001321  00000-0 -64866-4 0  9999,2 52671  53.2162 264.1797 0002189  43.5100 316.6065 15.08848485 25310,6917.854,95.437,541.234,538.205,0.0
52671.0,STARLINK-4071,PAYLOAD,2022-10-29 08:20:08,15.08850247,0.0002179,53.2162,263.8834,41.5893,318.5265,-5.331e-05,-1.137e-05,0.0,0 STARLINK-4071,1 52671U 22053R   22302.34732010 -.00001137  00000-0 -53310-4 0  9992,2 52671  53.2162 263.8834 0002179  41.5893 318.5265 15.08850247 25754,6917.849,95.437,541.221,538.207,0.0
52671.0,STARLINK-4071,PAYLOAD,2022-10-29 21:03:13,15.0885087,0.0001909,53.2163,261.5015,38.0569,322.0558,-0.00036588,-6.108e-05,0.0,0 STARLINK-4071,1 52671U 22053R   22302.87723585 -.00006108  00000-0 -36588-3 0  9997,2 52671  53.2163 261.5015 0001909  38.0569 322.0558 15.08850870 25838,6917.847,95.437,541.033,538.3919999999998,0.0
52671.0,STARLINK-4071,PAYLOAD,2022-10-30 05:00:09,15.08843324,0.0002228,53.2163,260.0173,41.746,318.3702,3.3957e-05,2.52e-06,0.0,0 STARLINK-4071,1 52671U 22053R   22303.20844269  .00000252  00000-0  33957-4 0  9998,2 52671  53.2163 260.0173 0002228  41.7460 318.3702 15.08843324 25883,6917.87,95.437,541.2769999999998,538.194,0.0
52671.0,STARLINK-4071,PAYLOAD,2022-10-30 14:32:28,15.08838083,0.000216,53.2161,258.2329,41.6412,318.4744,-3.8635e-05,-9.03e-06,0.0,0 STARLINK-4071,1 52671U 22053R   22303.60588589 -.00000903  00000-0 -38635-4 0  9995,2 52671  53.2161 258.2329 0002160  41.6412 318.4744 15.08838083 25944,6917.886,95.438,541.246,538.257,0.0
52671.0,STARLINK-4071,PAYLOAD,2022-10-31 08:01:43,15.08834135,0.0002011,53.2158,254.961,43.0038,317.1111,-2.0284e-05,-6.11e-06,0.0,0 STARLINK-4071,1 52671U 22053R   22304.33452915 -.00000611  00000-0 -20284-4 0  9996,2 52671  53.2158 254.9610 0002011  43.0038 317.1111 15.08834135 26052,6917.898,95.438,541.155,538.372,0.0
52671.0,STARLINK-4071,PAYLOAD,2022-10-31 14:23:15,15.08837812,0.0002179,53.2165,253.7713,41.4873,318.6284,0.00010718,1.418e-05,0.0,0 STARLINK-4071,1 52671U 22053R   22304.59948935  .00001418  00000-0  10718-3 0  9990,2 52671  53.2165 253.7713 0002179  41.4873 318.6284 15.08837812 25663,6917.887,95.438,541.259,538.245,0.0
52671.0,STARLINK-4071,PAYLOAD,2022-11-01 07:52:29,15.08846323,0.0002026,53.2172,250.5012,41.0007,319.1137,0.00012722,1.737e-05,0.0,0 STARLINK-4071,1 52671U 22053R   22305.32812434  .00001737  00000-0  12722-3 0  9997,2 52671  53.2172 250.5012 0002026  41.0007 319.1137 15.08846323 25776,6917.861,95.437,541.128,538.325,0.0
52671.0,STARLINK-4071,PAYLOAD,2022-11-02 04:32:31,15.08841062,0.0001986999999999,53.2163,246.6352,40.9909,319.1233,8.486399999999999e-05,1.063e-05,0.0,0 STARLINK-4071,1 52671U 22053R   22306.18924969  .00001063  00000-0  84864-4 0  9998,2 52671  53.2163 246.6352 0001987  40.9909 319.1233 15.08841062 25900,6917.877,95.437,541.117,538.368,0.0
52671.0,STARLINK-4071,PAYLOAD,2022-11-02 07:43:17,15.08843704,0.0001984,53.2162,246.0404,41.6456,318.4687,0.00012396,1.685e-05,0.0,0 STARLINK-4071,1 52671U 22053R   22306.32172818  .00001685  00000-0  12396-3 0  9992,2 52671  53.2162 246.0404 0001984  41.6456 318.4687 15.08843704 26353,6917.869000000002,95.437,541.107,538.362,0.0
52671.0,STARLINK-4071,PAYLOAD,2022-11-02 20:26:22,15.08832313,0.0001893,53.2166,243.6608,51.6472,308.469,-3.4238e-05,-8.33e-06,0.0,0 STARLINK-4071,1 52671U 22053R   22306.85165369 -.00000833  00000-0 -34238-4 0  9999,2 52671  53.2166 243.6608 0001893  51.6472 308.4690 15.08832313 26003,6917.904,95.438,541.078,538.4590000000002,0.0
52671.0,STARLINK-4071,PAYLOAD,2022-11-03 05:58:41,15.08840997,0.0001902,53.2162,241.8774,39.8366,320.2765,7.1759e-05,8.54e-06,0.0,0 STARLINK-4071,1 52671U 22053R   22307.24909238  .00000854  00000-0  71759-4 0  9994,2 52671  53.2162 241.8774 0001902  39.8366 320.2765 15.08840997 26062,6917.877,95.437,541.058,538.427,0.0
52671.0,STARLINK-4071,PAYLOAD,2022-11-03 20:17:08,15.08858745,0.0001881,53.2161,239.2015,39.6922,320.4207,0.00030859,4.629e-05,0.0,0 STARLINK-4071,1 52671U 22053R   22307.84524089  .00004629  00000-0  30859-3 0  9996,2 52671  53.2161 239.2015 0001881  39.6922 320.4207 15.08858745 26155,6917.823,95.436,540.989,538.387,0.0
52671.0,STARLINK-4071,PAYLOAD,2022-11-04 05:49:27,15.08859483,0.0001971,53.2161,237.4176,41.4926,318.6216,0.00028696,4.284e-05,0.0,0 STARLINK-4071,1 52671U 22053R   22308.24267821  .00004284  00000-0  28696-3 0  9992,2 52671  53.2161 237.4176 0001971  41.4926 318.6216 15.08859483 26641,6917.821,95.436,541.049,538.322,0.0
52671.0,STARLINK-4071,PAYLOAD,2022-11-04 20:07:55,15.08846043,0.0002033,53.2166,234.7395,44.0829,316.0325,7.4742e-05,9.02e-06,0.0,0 STARLINK-4071,1 52671U 22053R   22308.83884109  .00000902  00000-0  74742-4 0  9998,2 52671  53.2166 234.7395 0002033  44.0829 316.0325 15.08846043 26304,6917.861999999999,95.437,541.133,538.321,0.0
52671.0,STARLINK-4071,PAYLOAD,2022-11-05 04:04:52,15.08833216,0.0002227,53.2163,233.2545,41.0482,319.0677,-0.00023035,-3.952e-05,0.0,0 STARLINK-4071,1 52671U 22053R   22309.17004636 -.00003952  00000-0 -23035-3 0  9993,2 52671  53.2163 233.2545 0002227  41.0482 319.0677 15.08833216 26355,6917.901,95.438,541.307,538.226,0.0
52671.0,STARLINK-4071,PAYLOAD,2022-11-05 12:01:48,15.08818307,0.000215,53.2166,231.7667,44.9472,315.1694,-0.00033202,-5.565e-05,0.0,0 STARLINK-4071,1 52671U 22053R   22309.50125949 -.00005565  00000-0 -33202-3 0  9990,2 52671  53.2166 231.7667 0002150  44.9472 315.1694 15.08818307 26835,6917.946999999999,95.439,541.299,538.3240000000002,0.0
52671.0,STARLINK-4071,PAYLOAD,2022-11-06 03:55:40,15.08819659,0.0002057,53.2165,228.7914,43.4183,316.6971,-0.00013498,-2.435e-05,0.0,0 STARLINK-4071,1 52671U 22053R   22310.16366285 -.00002435  00000-0 -13498-3 0  9992,2 52671  53.2165 228.7914 0002057  43.4183 316.6971 15.08819659 26503,6917.943,95.439,541.231,538.385,0.0
52671.0,STARLINK-4071,PAYLOAD,2022-11-06 11:52:36,15.08830129,0.0002104,53.217,227.3054,42.7748,317.3408,0.00021098,3.07e-05,0.0,0 STARLINK-4071,1 52671U 22053R   22310.49486408  .00003070  00000-0  21098-3 0  9997,2 52671  53.2170 227.3054 0002104  42.7748 317.3408 15.08830129 26981,6917.911,95.438,541.231,538.32,0.0
52671.0,STARLINK-4071,PAYLOAD,2022-11-06 18:14:08,15.08836331,0.0002048,53.2167,226.1156,46.3421,313.774,0.00038969,5.919e-05,0.0,0 STARLINK-4071,1 52671U 22053R   22310.75982501  .00005919  00000-0  38969-3 0  9990,2 52671  53.2167 226.1156 0002048  46.3421 313.7740 15.08836331 26599,6917.892,95.438,541.173,538.34,0.0
52671.0,STARLINK-4071,PAYLOAD,2022-11-07 03:46:27,15.08859962,0.0001965,53.2158,224.3332,41.2333,318.8807,0.0010677,0.00016755,0.0,0 STARLINK-4071,1 52671U 22053R   22311.15726261  .00016755  00000-0  10677-2 0  9999,2 52671  53.2158 224.3332 0001965  41.2333 318.8807 15.08859962 26650,6917.819,95.436,541.044,538.325,0.0
52671.0,STARLINK-4071,PAYLOAD,2022-11-08 00:26:27,15.08867308,0.000211,53.216,220.4663,47.78100000000001,312.3361,0.0010253,0.0001608,0.0,0 STARLINK-4071,1 52671U 22053R   22312.01837888  .00016080  00000-0  10253-2 0  9994,2 52671  53.2160 220.4663 0002110  47.7810 312.3361 15.08867308 26782,6917.797,95.436,541.122,538.202,0.0
52671.0,STARLINK-4071,PAYLOAD,2022-11-08 17:55:40,15.08887905,0.0002065,53.2158,217.1958,45.4896,314.6264,0.00098688,0.00015474,0.0,0 STARLINK-4071,1 52671U 22053R   22312.74700231  .00015474  00000-0  98688-3 0  9990,2 52671  53.2158 217.1958 0002065  45.4896 314.6264 15.08887905 27320,6917.734,95.435,541.0269999999998,538.17,0.0
52671.0,STARLINK-4071,PAYLOAD,2022-11-09 03:27:58,15.08888495,0.0002088,53.2162,215.4114,46.3813,313.7352,0.00065029,0.0001009,0.0,0 STARLINK-4071,1 52671U 22053R   22313.14443153  .00010090  00000-0  65029-3 0  9994,2 52671  53.2162 215.4114 0002088  46.3813 313.7352 15.08888495 26955,6917.732,95.434,541.0419999999998,538.153,0.0
52671.0,STARLINK-4071,PAYLOAD,2022-11-09 20:57:14,15.08830075,0.0002303,53.2161,212.1411,39.0177,321.0981,-0.00041974,-6.961e-05,0.0,0 STARLINK-4071,1 52671U 22053R   22313.87308272 -.00006961  00000-0 -41974-3 0  9993,2 52671  53.2161 212.1411 0002303  39.0177 321.0981 15.08830075 27064,6917.911,95.438,541.369,538.183,0.0
